[{"OBJECT_NAME":"STARLINK-30919","OBJECT_ID":"2023-180K","EPOCH":"2026-03-09T09:12:34.926048","MEAN_MOTION":15.27568602,"ECCENTRICITY":7.868e-5,"INCLINATION":43.0006,"RA_OF_ASC_NODE":53.82,"ARG_OF_PERICENTER":271.186,"MEAN_ANOMALY":88.8902,"EPHEMERIS_TYPE":0,"CLASSIFICATION_TYPE":"U","NORAD_CAT_ID":58411,"ELEMENT_SET_NO":999,"REV_AT_EPOCH":12748,"BSTAR":-7.8684143e-5,"MEAN_MOTION_DOT":-2.426e-5,"MEAN_MOTION_DDOT":0},{"OBJECT_NAME":"FLOCK 4G-23","OBJECT_ID":"2025-009AQ","EPOCH":"2026-03-09T17:11:57.175872","MEAN_MOTION":15.27262579,"ECCENTRICITY":9.048e-5,"INCLINATION":97.3979,"RA_OF_ASC_NODE":150.9478,"ARG_OF_PERICENTER":7.2707,"MEAN_ANOMALY":352.8545,"EPHEMERIS_TYPE":0,"CLASSIFICATION_TYPE":"U","NORAD_CAT_ID":62647,"ELEMENT_SET_NO":999,"REV_AT_EPOCH":6372,"BSTAR":0.00046815788,"MEAN_MOTION_DOT":0.0001244,"MEAN_MOTION_DDOT":0}]
