STARLINK-30919          
1 58411U 23180K   26068.38373757 -.00002426  00000+0 -78684-4 0  9990
2 58411  43.0006  53.8200 0000786 271.1860  88.8902 15.27568602127487
FLOCK 4G-23             
1 62647U 25009AQ  26068.71663397  .00012440  00000+0  46816-3 0  9993
2 62647  97.3979 150.9478 0000905   7.2707 352.8545 15.27262579 63728
